ORBCOMM FM37            
1 33064U 08031E   25064.49236758  .00003040  00000+0  43399-3 0  9996
2 33064  48.4386 116.4104 0006635 287.9230 208.8330 14.79116525898694
ORBCOMM FM40            
1 33065U 08031F   25064.55568720  .00003784  00000+0  50814-3 0  9996
2 33065  48.4405 101.8190 0007927 299.9299 189.0375 14.81174233898796
VESSELSAT 1             
1 37840U 11058C   25064.45094356  .00000446  00000+0  98630-4 0  9993
2 37840  19.9634   1.5832 0013786 125.3944 234.7750 14.11317523691639
ORBCOMM FM109           
1 40086U 14040A   25064.50785475  .00001364  00000+0  33143-3 0  9995
2 40086  47.0030 145.8662 0002713 239.3443 120.7175 14.57879808566059
ORBCOMM FM107           
1 40087U 14040B   25064.54098462  .00001245  00000+0  30536-3 0  9994
2 40087  47.0048 146.7091 0001607 212.0257 148.0531 14.57939586566012
ORBCOMM FM106           
1 40088U 14040C   25064.46239073  .00002039  00000+0  37525-3 0  9998
2 40088  47.0611 337.4494 0017482 304.8948  55.0299 14.69002806568222
ORBCOMM FM111           
1 40089U 14040D   25064.53865889  .00005059  00000+0  60118-3 0  9996
2 40089  47.0007 201.0793 0029238  55.8626 304.5038 14.85373836574815
ORBCOMM FM104           
1 40090U 14040E   25064.55387914  .00001274  00000+0  32201-3 0  9995
2 40090  47.0045 179.0208 0015603  92.8035 267.4636 14.56382483565514
